     2              NAVIGATION DATA                         RINEX VERSION / TYPE
CCRINEXN V1.6.0 UX  CDDIS               27-DEC-22 23:31     PGM / RUN BY / DATE 
IGS BROADCAST EPHEMERIS FILE                                COMMENT             
    0.1956D-07 -0.7451D-08 -0.5960D-07  0.1192D-06          ION ALPHA           
    0.1372D+06 -0.1966D+06  0.6554D+05  0.1311D+06          ION BETA            
   -0.186264514923D-08-0.106581410364D-13   319488     2242 DELTA-UTC: A0,A1,T,W
    18                                                      LEAP SECONDS        
                                                            END OF HEADER       
 1 22 12 26  0  0  0.0 0.232804566622D-03-0.500222085975D-11 0.000000000000D+00
    0.910000000000D+02 0.376875000000D+02 0.427446376286D-08-0.390839562139D+00
    0.214390456677D-05 0.121452205349D-01 0.484287738800D-06 0.515365221977D+04
    0.864000000000D+05 0.335276126862D-07-0.125928009476D+01 0.134110450745D-06
    0.988977683850D+00 0.383062500000D+03 0.939437844408D+00-0.846392398498D-08
    0.482162941165D-10 0.100000000000D+01 0.224200000000D+04 0.000000000000D+00
    0.200000000000D+01 0.000000000000D+00 0.465661287308D-08 0.910000000000D+02
    0.834130000000D+05 0.400000000000D+01 0.000000000000D+00 0.000000000000D+00
 2 22 12 26  0  0  0.0-0.631046481430D-03 0.204636307899D-11 0.000000000000D+00
    0.590000000000D+02 0.745937500000D+02 0.469662420468D-08-0.134942522383D+01
    0.418908894062D-05 0.200979886577D-01 0.167265534401D-05 0.515369047165D+04
    0.864000000000D+05-0.430271029472D-06-0.135502365918D+01 0.309199094772D-06
    0.966716869055D+00 0.354562500000D+03-0.134891504871D+01-0.863000233138D-08
    0.112147528538D-09 0.100000000000D+01 0.224200000000D+04 0.000000000000D+00
    0.200000000000D+01 0.000000000000D+00-0.176951289177D-07 0.590000000000D+02
    0.793920000000D+05 0.400000000000D+01 0.000000000000D+00 0.000000000000D+00
 3 22 12 26  0  0  0.0-0.374807976186D-03 0.909494701773D-12 0.000000000000D+00
    0.310000000000D+02-0.142218750000D+03 0.409088468748D-08-0.153241537045D+01
   -0.742264091969D-05 0.441401905846D-02 0.592134892940D-05 0.515375597382D+04
    0.864000000000D+05 0.745058059692D-07-0.227271412915D+00 0.316649675369D-07
    0.977172075391D+00 0.273656250000D+03 0.104132900607D+01-0.796604610351D-08
   -0.277511559470D-09 0.100000000000D+01 0.224200000000D+04 0.000000000000D+00
    0.200000000000D+01 0.000000000000D+00 0.186264514923D-08 0.310000000000D+02
    0.792180000000D+05 0.400000000000D+01 0.000000000000D+00 0.000000000000D+00
 4 22 12 26  0  0  0.0-0.615436583757D-04 0.727595761418D-11 0.000000000000D+00
    0.820000000000D+02-0.462187500000D+02 0.419838916547D-08 0.147081517731D+01
   -0.231340527534D-05 0.224728428293D-02 0.119116157293D-04 0.515373145294D+04
    0.864000000000D+05-0.106170773506D-06 0.853552100797D+00 0.391155481338D-07
    0.962090279448D+00 0.149937500000D+03-0.309844980820D+01-0.770746390395D-08
    0.533593654889D-09 0.100000000000D+01 0.224200000000D+04 0.000000000000D+00
    0.200000000000D+01 0.000000000000D+00-0.465661287308D-08 0.850000000000D+03
    0.792180000000D+05 0.400000000000D+01 0.000000000000D+00 0.000000000000D+00
 5 22 12 26  0  0  0.0-0.109483022243D-03-0.147792889038D-11 0.000000000000D+00
    0.117000000000D+03-0.145875000000D+03 0.439625455022D-08 0.215853068715D+01
   -0.768527388573D-05 0.581380259246D-02 0.396184623241D-05 0.515359103966D+04
    0.864000000000D+05 0.521540641785D-07-0.271809994800D+00-0.577419996262D-07
    0.964179921872D+00 0.308031250000D+03 0.114115696462D+01-0.821141346690D-08
   -0.278583032673D-09 0.100000000000D+01 0.224200000000D+04 0.000000000000D+00
    0.200000000000D+01 0.000000000000D+00-0.111758708954D-07 0.117000000000D+03
    0.792490000000D+05 0.400000000000D+01 0.000000000000D+00 0.000000000000D+00
 6 22 12 26  0  0  0.0 0.547220464796D-03 0.704858393874D-11 0.000000000000D+00
    0.890000000000D+02 0.587187500000D+02 0.417017370447D-08-0.108434094955D+00
    0.303238630295D-05 0.278840342071D-02 0.560656189918D-06 0.515357867813D+04
    0.864000000000D+05-0.260770320892D-07-0.126757893497D+01-0.856816768646D-07
    0.988244421033D+00 0.384750000000D+03-0.898232846135D+00-0.832177520677D-08
    0.921466954226D-10 0.100000000000D+01 0.224200000000D+04 0.000000000000D+00
    0.200000000000D+01 0.000000000000D+00 0.372529029846D-08 0.890000000000D+02
    0.792180000000D+05 0.400000000000D+01 0.000000000000D+00 0.000000000000D+00
 7 22 12 26  0  0  0.0 0.269010197371D-03-0.568434188608D-11 0.000000000000D+00
    0.420000000000D+02 0.122812500000D+02 0.525236163909D-08-0.999677653936D+00
    0.949949026108D-06 0.165371861076D-01 0.568293035030D-05 0.515359353828D+04
    0.864000000000D+05 0.257045030594D-06 0.187006309518D+01 0.374391674995D-06
    0.950014489037D+00 0.261875000000D+03-0.223352510660D+01-0.835499087605D-08
    0.262510934634D-09 0.100000000000D+01 0.224200000000D+04 0.000000000000D+00
    0.200000000000D+01 0.000000000000D+00-0.111758708954D-07 0.420000000000D+02
    0.792500000000D+05 0.400000000000D+01 0.000000000000D+00 0.000000000000D+00
 8 22 12 26  0  0  0.0-0.100433826446D-03-0.181898940355D-11 0.000000000000D+00
    0.480000000000D+02 0.133875000000D+03 0.432160858377D-08 0.187307867843D+01
    0.714883208275D-05 0.803457037546D-02 0.964850187302D-05 0.515364318848D+04
    0.864000000000D+05-0.223517417908D-07-0.234722469284D+01 0.169500708580D-06
    0.960966525759D+00 0.194343750000D+03 0.179213864977D+00-0.792961601462D-08
   -0.129648257513D-09 0.100000000000D+01 0.224200000000D+04 0.000000000000D+00
    0.200000000000D+01 0.000000000000D+00 0.512227416039D-08 0.480000000000D+02
    0.792510000000D+05 0.400000000000D+01 0.000000000000D+00 0.000000000000D+00
 9 22 12 26  0  0  0.0-0.247459858656D-03 0.625277607469D-11 0.000000000000D+00
    0.540000000000D+02-0.576562500000D+02 0.427732102473D-08 0.219603427154D+01
   -0.291317701340D-05 0.262531510089D-02 0.119619071484D-04 0.515370709992D+04
    0.864000000000D+05-0.931322574616D-08 0.798082495545D+00 0.707805156708D-07
    0.955324913849D+00 0.143468750000D+03 0.195252372478D+01-0.773639368042D-08
    0.539665336370D-09 0.100000000000D+01 0.224200000000D+04 0.000000000000D+00
    0.200000000000D+01 0.000000000000D+00 0.931322574616D-09 0.540000000000D+02
    0.792520000000D+05 0.400000000000D+01 0.000000000000D+00 0.000000000000D+00
10 22 12 26  0  0  0.0-0.176709145307D-04-0.159161572810D-11 0.000000000000D+00
    0.890000000000D+02-0.144343750000D+03 0.394194991232D-08-0.243544442277D+01
   -0.755675137043D-05 0.835875154007D-02 0.550784170628D-05 0.515369290924D+04
    0.864000000000D+05 0.409781932831D-07-0.229954248140D+00-0.104308128357D-06
    0.976937996795D+00 0.281750000000D+03-0.247548900955D+01-0.783996942334D-08
   -0.123933733766D-09 0.100000000000D+01 0.224200000000D+04 0.000000000000D+00
    0.280000000000D+01 0.000000000000D+00 0.232830643654D-08 0.890000000000D+02
    0.792180000000D+05 0.400000000000D+01 0.000000000000D+00 0.000000000000D+00
11 22 12 26  0  0  0.0-0.644451938569D-04-0.784439180279D-11 0.000000000000D+00
    0.202000000000D+03 0.525312500000D+02 0.473662587091D-08 0.116571333195D+01
    0.269524753094D-05 0.802068039775D-03 0.745058059692D-08 0.515368378639D+04
    0.864000000000D+05-0.111758708954D-07-0.122276923341D+01-0.931322574616D-08
    0.964323971027D+00 0.382343750000D+03-0.275803810164D+01-0.858714340328D-08
    0.678599694973D-10 0.100000000000D+01 0.224200000000D+04 0.000000000000D+00
    0.200000000000D+01 0.000000000000D+00-0.884756445885D-08 0.202000000000D+03
    0.792180000000D+05 0.400000000000D+01 0.000000000000D+00 0.000000000000D+00
12 22 12 26  0  0  0.0-0.320313964039D-03-0.454747350886D-11 0.000000000000D+00
    0.430000000000D+02 0.101562500000D+02 0.453554606656D-08-0.176711025144D+01
    0.638887286186D-06 0.876106368378D-02 0.933930277824D-05 0.515368336296D+04
    0.864000000000D+05 0.162050127983D-06 0.298422585507D+01 0.707805156708D-07
    0.967235450108D+00 0.202781250000D+03 0.132077216801D+01-0.775139430526D-08
   -0.582167106740D-09 0.100000000000D+01 0.224200000000D+04 0.000000000000D+00
    0.280000000000D+01 0.000000000000D+00-0.125728547573D-07 0.430000000000D+02
    0.792180000000D+05 0.400000000000D+01 0.000000000000D+00 0.000000000000D+00
13 22 12 26  0  0  0.0 0.448290724307D-03 0.648014975013D-11 0.000000000000D+00
    0.930000000000D+02-0.549062500000D+02 0.409374194936D-08 0.136314607879D+01
   -0.280700623989D-05 0.672360090539D-02 0.113137066364D-04 0.515367650223D+04
    0.864000000000D+05-0.108033418655D-06 0.955930360051D+00 0.707805156708D-07
    0.969161933279D+00 0.166125000000D+03 0.950207412821D+00-0.773960810003D-08
    0.589310261424D-09 0.100000000000D+01 0.224200000000D+04 0.000000000000D+00
    0.282842707634D+01 0.000000000000D+00-0.116415321827D-07 0.930000000000D+02
    0.792530000000D+05 0.400000000000D+01 0.000000000000D+00 0.000000000000D+00
14 22 12 26  0  0  0.0-0.617424957454D-04 0.682121026330D-11 0.000000000000D+00
    0.113000000000D+03 0.103750000000D+02 0.482984403953D-08-0.174996993080D+01
    0.467523932457D-06 0.248069595546D-02 0.943802297115D-05 0.515365596581D+04
    0.864000000000D+05 0.577419996262D-07 0.294799265849D+01-0.409781932831D-07
    0.950571474615D+00 0.192875000000D+03-0.306331823283D+01-0.797926093968D-08
   -0.588595945955D-09 0.100000000000D+01 0.224200000000D+04 0.000000000000D+00
    0.200000000000D+01 0.000000000000D+00-0.791624188423D-08 0.369000000000D+03
    0.792540000000D+05 0.400000000000D+01 0.000000000000D+00 0.000000000000D+00
